KUIPER-00167            
1 65780U 25217U   26015.02807835  .00001969  00000+0  28696-3 0  9998
2 65780  51.8975 282.8772 0000753  64.7617 295.3424 14.79969614 16894
KUIPER-00168            
1 65781U 25217V   26015.66668981 -.00000143  00000+0  97693-5 0  9995
2 65781  51.8921 263.5009 0000854 284.3157   8.1218 14.98550839  4564
KUIPER-00169            
1 65782U 25217W   26015.66668981  .00027355  00000+0  32517-2 0  9990
2 65782  51.9011 267.7062 0004103 128.0897 252.3392 14.84208825  5362
KUIPER-00170            
1 65783U 25217X   26015.66668981 -.00005348  00000+0 -67159-3 0  9992
2 65783  51.8988 272.5640 0000667 112.9806   8.0501 14.80026927  5314
KUIPER-00171            
1 65784U 25217Y   26015.66668981  .01807844  00000+0  77538-2 0  9994
2 65784  51.8506 242.9597 0010325 149.9594 312.9213 15.81639012  3962
KUIPER-00172            
1 65785U 25217Z   26015.08588294  .00008389  00000+0  39185-3 0  9992
2 65785  51.8745 266.0670 0005276 147.0315 213.0994 15.20601323 17134
KUIPER-00173            
1 65786U 25217AA  26015.66668981  .00021910  00000+0  26076-2 0  9998
2 65786  51.9013 267.7130 0002563 234.2975 323.2705 14.84279871  5353
KUIPER-00174            
1 65787U 25217AB  26015.66668981  .00000819  00000+0  89348-4 0  9997
2 65787  51.8907 263.6489 0000921 238.1992 212.1751 14.98517380  5683
